<?xml version="1.0" encoding="UTF-8"?>
<gpx version="1.1" creator="APEX">
  <metadata>
    <name>Sitabuldi to Nagpur Airport via Ambazari Lake</name>
    <desc>~12 km urban demo ride. Point A Sitabuldi / Zero Mile, Point B Sonegaon Airport.</desc>
  </metadata>
  <trk>
    <name>Sitabuldi → Ambazari → Airport</name>
    <trkseg>
      <trkpt lat="21.146081" lon="79.084853"></trkpt>
      <trkpt lat="21.146232" lon="79.084406"></trkpt>
      <trkpt lat="21.146372" lon="79.083976"></trkpt>
      <trkpt lat="21.146823" lon="79.084180"></trkpt>
      <trkpt lat="21.146927" lon="79.083787"></trkpt>
      <trkpt lat="21.147267" lon="79.082026"></trkpt>
      <trkpt lat="21.147363" lon="79.081530"></trkpt>
      <trkpt lat="21.147283" lon="79.081448"></trkpt>
      <trkpt lat="21.147018" lon="79.081332"></trkpt>
      <trkpt lat="21.146741" lon="79.081423"></trkpt>
      <trkpt lat="21.146291" lon="79.081382"></trkpt>
      <trkpt lat="21.145275" lon="79.081229"></trkpt>
      <trkpt lat="21.144114" lon="79.081060"></trkpt>
      <trkpt lat="21.143700" lon="79.081013"></trkpt>
      <trkpt lat="21.143113" lon="79.080917"></trkpt>
      <trkpt lat="21.141481" lon="79.080524"></trkpt>
      <trkpt lat="21.141144" lon="79.080393"></trkpt>
      <trkpt lat="21.141191" lon="79.079987"></trkpt>
      <trkpt lat="21.141200" lon="79.079915"></trkpt>
      <trkpt lat="21.141001" lon="79.079101"></trkpt>
      <trkpt lat="21.140871" lon="79.078619"></trkpt>
      <trkpt lat="21.140726" lon="79.078114"></trkpt>
      <trkpt lat="21.140618" lon="79.077721"></trkpt>
      <trkpt lat="21.140426" lon="79.077196"></trkpt>
      <trkpt lat="21.140284" lon="79.076818"></trkpt>
      <trkpt lat="21.140160" lon="79.076440"></trkpt>
      <trkpt lat="21.139997" lon="79.075898"></trkpt>
      <trkpt lat="21.139796" lon="79.075087"></trkpt>
      <trkpt lat="21.139699" lon="79.074618"></trkpt>
      <trkpt lat="21.139564" lon="79.074124"></trkpt>
      <trkpt lat="21.139343" lon="79.073472"></trkpt>
      <trkpt lat="21.139241" lon="79.073093"></trkpt>
      <trkpt lat="21.139120" lon="79.072677"></trkpt>
      <trkpt lat="21.138984" lon="79.072292"></trkpt>
      <trkpt lat="21.138864" lon="79.071903"></trkpt>
      <trkpt lat="21.138712" lon="79.071404"></trkpt>
      <trkpt lat="21.138566" lon="79.070968"></trkpt>
      <trkpt lat="21.138428" lon="79.070592"></trkpt>
      <trkpt lat="21.138285" lon="79.070186"></trkpt>
      <trkpt lat="21.138106" lon="79.069714"></trkpt>
      <trkpt lat="21.137906" lon="79.069218"></trkpt>
      <trkpt lat="21.137717" lon="79.068693"></trkpt>
      <trkpt lat="21.137626" lon="79.068319"></trkpt>
      <trkpt lat="21.137482" lon="79.067860"></trkpt>
      <trkpt lat="21.137333" lon="79.067334"></trkpt>
      <trkpt lat="21.137136" lon="79.066679"></trkpt>
      <trkpt lat="21.137037" lon="79.066302"></trkpt>
      <trkpt lat="21.136914" lon="79.065903"></trkpt>
      <trkpt lat="21.136747" lon="79.065274"></trkpt>
      <trkpt lat="21.136634" lon="79.064714"></trkpt>
      <trkpt lat="21.136551" lon="79.064129"></trkpt>
      <trkpt lat="21.136475" lon="79.063601"></trkpt>
      <trkpt lat="21.136368" lon="79.062994"></trkpt>
      <trkpt lat="21.136298" lon="79.062537"></trkpt>
      <trkpt lat="21.136192" lon="79.061955"></trkpt>
      <trkpt lat="21.136069" lon="79.061376"></trkpt>
      <trkpt lat="21.135942" lon="79.060862"></trkpt>
      <trkpt lat="21.135816" lon="79.060393"></trkpt>
      <trkpt lat="21.135212" lon="79.059044"></trkpt>
      <trkpt lat="21.134807" lon="79.058295"></trkpt>
      <trkpt lat="21.134474" lon="79.057596"></trkpt>
      <trkpt lat="21.134049" lon="79.056906"></trkpt>
      <trkpt lat="21.133806" lon="79.056497"></trkpt>
      <trkpt lat="21.133296" lon="79.055634"></trkpt>
      <trkpt lat="21.132971" lon="79.055063"></trkpt>
      <trkpt lat="21.132642" lon="79.054466"></trkpt>
      <trkpt lat="21.132346" lon="79.053928"></trkpt>
      <trkpt lat="21.132139" lon="79.053553"></trkpt>
      <trkpt lat="21.131750" lon="79.052871"></trkpt>
      <trkpt lat="21.131359" lon="79.052268"></trkpt>
      <trkpt lat="21.131219" lon="79.051738"></trkpt>
      <trkpt lat="21.131064" lon="79.051215"></trkpt>
      <trkpt lat="21.130897" lon="79.050547"></trkpt>
      <trkpt lat="21.130780" lon="79.050036"></trkpt>
      <trkpt lat="21.130654" lon="79.049512"></trkpt>
      <trkpt lat="21.130595" lon="79.048903"></trkpt>
      <trkpt lat="21.130625" lon="79.048355"></trkpt>
      <trkpt lat="21.130841" lon="79.046877"></trkpt>
      <trkpt lat="21.130901" lon="79.046510"></trkpt>
      <trkpt lat="21.129669" lon="79.046257"></trkpt>
      <trkpt lat="21.129096" lon="79.046130"></trkpt>
      <trkpt lat="21.128690" lon="79.046034"></trkpt>
      <trkpt lat="21.128250" lon="79.045883"></trkpt>
      <trkpt lat="21.127877" lon="79.045696"></trkpt>
      <trkpt lat="21.127303" lon="79.045401"></trkpt>
      <trkpt lat="21.126937" lon="79.045137"></trkpt>
      <trkpt lat="21.126563" lon="79.044849"></trkpt>
      <trkpt lat="21.126139" lon="79.044580"></trkpt>
      <trkpt lat="21.125790" lon="79.044371"></trkpt>
      <trkpt lat="21.125553" lon="79.044320"></trkpt>
      <trkpt lat="21.124976" lon="79.044461"></trkpt>
      <trkpt lat="21.124578" lon="79.044631"></trkpt>
      <trkpt lat="21.124493" lon="79.044693"></trkpt>
      <trkpt lat="21.124429" lon="79.044641"></trkpt>
      <trkpt lat="21.124499" lon="79.044573"></trkpt>
      <trkpt lat="21.124902" lon="79.044379"></trkpt>
      <trkpt lat="21.125262" lon="79.044272"></trkpt>
      <trkpt lat="21.125628" lon="79.044237"></trkpt>
      <trkpt lat="21.125756" lon="79.044251"></trkpt>
      <trkpt lat="21.126189" lon="79.044493"></trkpt>
      <trkpt lat="21.126547" lon="79.044732"></trkpt>
      <trkpt lat="21.126975" lon="79.045075"></trkpt>
      <trkpt lat="21.127278" lon="79.045293"></trkpt>
      <trkpt lat="21.127908" lon="79.045623"></trkpt>
      <trkpt lat="21.128298" lon="79.045821"></trkpt>
      <trkpt lat="21.128870" lon="79.046002"></trkpt>
      <trkpt lat="21.129297" lon="79.046091"></trkpt>
      <trkpt lat="21.129668" lon="79.046167"></trkpt>
      <trkpt lat="21.130690" lon="79.046368"></trkpt>
      <trkpt lat="21.131008" lon="79.046437"></trkpt>
      <trkpt lat="21.130992" lon="79.046527"></trkpt>
      <trkpt lat="21.129669" lon="79.046257"></trkpt>
      <trkpt lat="21.129096" lon="79.046130"></trkpt>
      <trkpt lat="21.128690" lon="79.046034"></trkpt>
      <trkpt lat="21.128250" lon="79.045883"></trkpt>
      <trkpt lat="21.127877" lon="79.045696"></trkpt>
      <trkpt lat="21.127303" lon="79.045401"></trkpt>
      <trkpt lat="21.126937" lon="79.045137"></trkpt>
      <trkpt lat="21.126563" lon="79.044849"></trkpt>
      <trkpt lat="21.126139" lon="79.044580"></trkpt>
      <trkpt lat="21.125790" lon="79.044371"></trkpt>
      <trkpt lat="21.125553" lon="79.044320"></trkpt>
      <trkpt lat="21.124976" lon="79.044461"></trkpt>
      <trkpt lat="21.124578" lon="79.044631"></trkpt>
      <trkpt lat="21.124255" lon="79.044842"></trkpt>
      <trkpt lat="21.123587" lon="79.045241"></trkpt>
      <trkpt lat="21.123427" lon="79.045366"></trkpt>
      <trkpt lat="21.123164" lon="79.045742"></trkpt>
      <trkpt lat="21.122736" lon="79.046438"></trkpt>
      <trkpt lat="21.122377" lon="79.047055"></trkpt>
      <trkpt lat="21.122092" lon="79.047886"></trkpt>
      <trkpt lat="21.121932" lon="79.048481"></trkpt>
      <trkpt lat="21.121795" lon="79.048991"></trkpt>
      <trkpt lat="21.121700" lon="79.049386"></trkpt>
      <trkpt lat="21.121596" lon="79.050015"></trkpt>
      <trkpt lat="21.121559" lon="79.050445"></trkpt>
      <trkpt lat="21.121530" lon="79.050898"></trkpt>
      <trkpt lat="21.121503" lon="79.051323"></trkpt>
      <trkpt lat="21.121479" lon="79.051790"></trkpt>
      <trkpt lat="21.121433" lon="79.052416"></trkpt>
      <trkpt lat="21.121335" lon="79.053423"></trkpt>
      <trkpt lat="21.121289" lon="79.054057"></trkpt>
      <trkpt lat="21.121254" lon="79.054442"></trkpt>
      <trkpt lat="21.121226" lon="79.054934"></trkpt>
      <trkpt lat="21.121180" lon="79.055452"></trkpt>
      <trkpt lat="21.121175" lon="79.055817"></trkpt>
      <trkpt lat="21.121239" lon="79.056057"></trkpt>
      <trkpt lat="21.121544" lon="79.056339"></trkpt>
      <trkpt lat="21.121691" lon="79.056467"></trkpt>
      <trkpt lat="21.121610" lon="79.056540"></trkpt>
      <trkpt lat="21.121478" lon="79.056595"></trkpt>
      <trkpt lat="21.121110" lon="79.056631"></trkpt>
      <trkpt lat="21.120325" lon="79.056680"></trkpt>
      <trkpt lat="21.119849" lon="79.056712"></trkpt>
      <trkpt lat="21.119051" lon="79.056687"></trkpt>
      <trkpt lat="21.118641" lon="79.056698"></trkpt>
      <trkpt lat="21.117898" lon="79.056708"></trkpt>
      <trkpt lat="21.117340" lon="79.056745"></trkpt>
      <trkpt lat="21.116525" lon="79.056784"></trkpt>
      <trkpt lat="21.115293" lon="79.056857"></trkpt>
      <trkpt lat="21.114444" lon="79.056902"></trkpt>
      <trkpt lat="21.113887" lon="79.056849"></trkpt>
      <trkpt lat="21.113122" lon="79.056767"></trkpt>
      <trkpt lat="21.112325" lon="79.056810"></trkpt>
      <trkpt lat="21.111469" lon="79.056869"></trkpt>
      <trkpt lat="21.110648" lon="79.056925"></trkpt>
      <trkpt lat="21.109871" lon="79.056895"></trkpt>
      <trkpt lat="21.108729" lon="79.056863"></trkpt>
      <trkpt lat="21.107798" lon="79.056834"></trkpt>
      <trkpt lat="21.107321" lon="79.056786"></trkpt>
      <trkpt lat="21.106925" lon="79.056718"></trkpt>
      <trkpt lat="21.106159" lon="79.056579"></trkpt>
      <trkpt lat="21.105594" lon="79.056477"></trkpt>
      <trkpt lat="21.104812" lon="79.056351"></trkpt>
      <trkpt lat="21.104716" lon="79.056341"></trkpt>
      <trkpt lat="21.104769" lon="79.054726"></trkpt>
      <trkpt lat="21.104392" lon="79.054707"></trkpt>
      <trkpt lat="21.103842" lon="79.054694"></trkpt>
      <trkpt lat="21.103390" lon="79.054752"></trkpt>
      <trkpt lat="21.102727" lon="79.054816"></trkpt>
      <trkpt lat="21.102223" lon="79.054894"></trkpt>
      <trkpt lat="21.101782" lon="79.055074"></trkpt>
      <trkpt lat="21.101716" lon="79.054703"></trkpt>
      <trkpt lat="21.101601" lon="79.054512"></trkpt>
      <trkpt lat="21.101391" lon="79.054488"></trkpt>
      <trkpt lat="21.101120" lon="79.054617"></trkpt>
      <trkpt lat="21.100908" lon="79.054660"></trkpt>
      <trkpt lat="21.100722" lon="79.054652"></trkpt>
      <trkpt lat="21.100152" lon="79.054498"></trkpt>
      <trkpt lat="21.099574" lon="79.054397"></trkpt>
      <trkpt lat="21.098676" lon="79.054214"></trkpt>
      <trkpt lat="21.098525" lon="79.054142"></trkpt>
      <trkpt lat="21.098275" lon="79.053520"></trkpt>
      <trkpt lat="21.098027" lon="79.052720"></trkpt>
      <trkpt lat="21.097873" lon="79.051785"></trkpt>
      <trkpt lat="21.097490" lon="79.051692"></trkpt>
      <trkpt lat="21.097052" lon="79.051544"></trkpt>
      <trkpt lat="21.097059" lon="79.051143"></trkpt>
      <trkpt lat="21.097007" lon="79.050943"></trkpt>
      <trkpt lat="21.096842" lon="79.050717"></trkpt>
      <trkpt lat="21.096365" lon="79.050646"></trkpt>
      <trkpt lat="21.095903" lon="79.050566"></trkpt>
      <trkpt lat="21.095607" lon="79.050518"></trkpt>
      <trkpt lat="21.095245" lon="79.050327"></trkpt>
      <trkpt lat="21.095236" lon="79.050110"></trkpt>
      <trkpt lat="21.095308" lon="79.049793"></trkpt>
      <trkpt lat="21.094724" lon="79.049742"></trkpt>
      <trkpt lat="21.094599" lon="79.049710"></trkpt>
    </trkseg>
  </trk>
</gpx>
